{"type": "FeatureCollection", "features": [ {"type": "Feature", "properties": {"norad_id": 60453, "name": "LEGION 4", "group": "resource", "lat": -43.369565246977004, "lon": 25.138113786096834, "alt_km": 516.485056308502, "timestamp": "2025-12-02T15:49:06.840896+00:00", "meta": {"OBJECT_NAME": "LEGION 4", "OBJECT_ID": "2024-146B", "EPOCH": "2025-12-02T05:04:48.721728", "MEAN_MOTION": 15.15639513, "ECCENTRICITY": 0.00098609, "INCLINATION": 45.0374, "RA_OF_ASC_NODE": 98.2826, "ARG_OF_PERICENTER": 256.4141, "MEAN_ANOMALY": 103.564, "EPHEMERIS_TYPE": 0, "CLASSIFICATION_TYPE": "U", "NORAD_CAT_ID": 60453, "ELEMENT_SET_NO": 999, "REV_AT_EPOCH": 7098, "BSTAR": 0.00042277467, "MEAN_MOTION_DOT": 7.927e-05, "MEAN_MOTION_DDOT": 0}, "tle": {"line1": "1 60453U 24146B   25336.21167502  .00007927  00000+0  42277-3 0  9997", "line2": "2 60453  45.0374  98.2826 0009860 256.4141 103.5640 15.15639513 70986"}}, "geometry": {"type": "Point", "coordinates": [25.138113786096834, -43.369565246977004]}}, {"type": "Feature", "properties": {"norad_id": 60989, "name": "SENTINEL-2C", "group": "resource", "lat": -50.81406531330468, "lon": 59.93776906712594, "alt_km": 796.6118586645107, "timestamp": "2025-12-02T15:49:06.840909+00:00", "meta": {"OBJECT_NAME": "SENTINEL-2C", "OBJECT_ID": "2024-157A", "EPOCH": "2025-12-02T05:59:22.248384", "MEAN_MOTION": 14.30823406, "ECCENTRICITY": 0.00011644, "INCLINATION": 98.5615, "RA_OF_ASC_NODE": 48.8849, "ARG_OF_PERICENTER": 102.2564, "MEAN_ANOMALY": 257.8749, "EPHEMERIS_TYPE": 0, "CLASSIFICATION_TYPE": "U", "NORAD_CAT_ID": 60989, "ELEMENT_SET_NO": 999, "REV_AT_EPOCH": 6482, "BSTAR": 9.99643e-05, "MEAN_MOTION_DOT": 2.18e-06, "MEAN_MOTION_DDOT": 0}, "tle": {"line1": "1 60989U 24157A   25336.24956306  .00000218  00000+0  99964-4 0  9996", "line2": "2 60989  98.5615  48.8849 0001164 102.2564 257.8749 14.30823406 64824"}}, "geometry": {"type": "Point", "coordinates": [59.93776906712594, -50.81406531330468]}}, {"type": "Feature", "properties": {"norad_id": 61735, "name": "IONOSFERA-M 1", "group": "resource", "lat": 31.058423796755168, "lon": 31.90037717340686, "alt_km": 814.8407648564562, "timestamp": "2025-12-02T15:49:06.840919+00:00", "meta": {"OBJECT_NAME": "IONOSFERA-M 1", "OBJECT_ID": "2024-199A", "EPOCH": "2025-12-02T06:41:02.044896", "MEAN_MOTION": 14.22710163, "ECCENTRICITY": 0.00014195, "INCLINATION": 98.7409, "RA_OF_ASC_NODE": 206.2064, "ARG_OF_PERICENTER": 36.7778, "MEAN_ANOMALY": 323.3497, "EPHEMERIS_TYPE": 0, "CLASSIFICATION_TYPE": "U", "NORAD_CAT_ID": 61735, "ELEMENT_SET_NO": 999, "REV_AT_EPOCH": 9970, "BSTAR": 6.093669e-05, "MEAN_MOTION_DOT": 9.2e-07, "MEAN_MOTION_DDOT": 0}, "tle": {"line1": "1 61735U 24199A   25336.27849589  .00000092  00000+0  60937-4 0  9997", "line2": "2 61735  98.7409 206.2064 0001419  36.7778 323.3497 14.22710163 99707"}}, "geometry": {"type": "Point", "coordinates": [31.90037717340686, 31.058423796755168]}}, {"type": "Feature", "properties": {"norad_id": 61736, "name": "IONOSFERA-M 2", "group": "resource", "lat": -28.73462795212965, "lon": -148.66476613134375, "alt_km": 822.848285380539, "timestamp": "2025-12-02T15:49:06.840930+00:00", "meta": {"OBJECT_NAME": "IONOSFERA-M 2", "OBJECT_ID": "2024-199B", "EPOCH": "2025-12-02T07:30:56.669760", "MEAN_MOTION": 14.22712357, "ECCENTRICITY": 0.00013435, "INCLINATION": 98.7408, "RA_OF_ASC_NODE": 206.1534, "ARG_OF_PERICENTER": 123.0796, "MEAN_ANOMALY": 237.0511, "EPHEMERIS_TYPE": 0, "CLASSIFICATION_TYPE": "U", "NORAD_CAT_ID": 61736, "ELEMENT_SET_NO": 999, "REV_AT_EPOCH": 10283, "BSTAR": 6.908502e-05, "MEAN_MOTION_DOT": 1.11e-06, "MEAN_MOTION_DDOT": 0}, "tle": {"line1": "1 61736U 24199B   25336.31315590  .00000111  00000+0  69085-4 0  9998", "line2": "2 61736  98.7408 206.1534 0001343 123.0796 237.0511 14.22712357102838"}}, "geometry": {"type": "Point", "coordinates": [-148.66476613134375, -28.73462795212965]}}, {"type": "Feature", "properties": {"norad_id": 63772, "name": "BIOMASS", "group": "resource", "lat": -20.42602047668612, "lon": 164.84379042027012, "alt_km": 674.3281698399078, "timestamp": "2025-12-02T15:49:06.840940+00:00", "meta": {"OBJECT_NAME": "BIOMASS", "OBJECT_ID": "2025-090A", "EPOCH": "2025-12-02T02:49:17.246208", "MEAN_MOTION": 14.67541425, "ECCENTRICITY": 0.00012119, "INCLINATION": 98.0707, "RA_OF_ASC_NODE": 161.2812, "ARG_OF_PERICENTER": 83.065, "MEAN_ANOMALY": 277.0692, "EPHEMERIS_TYPE": 0, "CLASSIFICATION_TYPE": "U", "NORAD_CAT_ID": 63772, "ELEMENT_SET_NO": 999, "REV_AT_EPOCH": 3178, "BSTAR": 0.00030442173, "MEAN_MOTION_DOT": 1.679e-05, "MEAN_MOTION_DDOT": 0}, "tle": {"line1": "1 63772U 25090A   25336.11756072  .00001679  00000+0  30442-3 0  9997", "line2": "2 63772  98.0707 161.2812 0001211  83.0650 277.0692 14.67541425 31787"}}, "geometry": {"type": "Point", "coordinates": [164.84379042027012, -20.42602047668612]}}, {"type": "Feature", "properties": {"norad_id": 64694, "name": "GOSAT-GW (IBUKI GW)", "group": "resource", "lat": -8.171586687215775, "lon": 91.19149190020102, "alt_km": 673.2215937127376, "timestamp": "2025-12-02T15:49:06.840949+00:00", "meta": {"OBJECT_NAME": "GOSAT-GW (IBUKI GW)", "OBJECT_ID": "2025-141A", "EPOCH": "2025-11-30T05:41:32.267328", "MEAN_MOTION": 14.67567435, "ECCENTRICITY": 0.00014369, "INCLINATION": 98.0401, "RA_OF_ASC_NODE": 269.9775, "ARG_OF_PERICENTER": 82.921, "MEAN_ANOMALY": 277.2158, "EPHEMERIS_TYPE": 0, "CLASSIFICATION_TYPE": "U", "NORAD_CAT_ID": 64694, "ELEMENT_SET_NO": 999, "REV_AT_EPOCH": 2266, "BSTAR": 0.00019762357, "MEAN_MOTION_DOT": 1.074e-05, "MEAN_MOTION_DDOT": 0}, "tle": {"line1": "1 64694U 25141A   25334.23717902  .00001074  00000+0  19762-3 0  9999", "line2": "2 64694  98.0401 269.9775 0001436  82.9210 277.2158 14.67567435 22660"}}, "geometry": {"type": "Point", "coordinates": [91.19149190020102, -8.171586687215775]}}, {"type": "Feature", "properties": {"norad_id": 64876, "name": "IONOSFERA-M 3", "group": "resource", "lat": 60.40780548210194, "lon": -76.6002131516857, "alt_km": 812.9195435293659, "timestamp": "2025-12-02T15:49:06.840959+00:00", "meta": {"OBJECT_NAME": "IONOSFERA-M 3", "OBJECT_ID": "2025-155A", "EPOCH": "2025-12-02T07:04:59.128320", "MEAN_MOTION": 14.21436846, "ECCENTRICITY": 0.0002405, "INCLINATION": 98.5768, "RA_OF_ASC_NODE": 298.4576, "ARG_OF_PERICENTER": 76.2024, "MEAN_ANOMALY": 283.9421, "EPHEMERIS_TYPE": 0, "CLASSIFICATION_TYPE": "U", "NORAD_CAT_ID": 64876, "ELEMENT_SET_NO": 999, "REV_AT_EPOCH": 1843, "BSTAR": 7.4910839e-05, "MEAN_MOTION_DOT": 1.21e-06, "MEAN_MOTION_DDOT": 0}, "tle": {"line1": "1 64876U 25155A   25336.29512880  .00000121  00000+0  74911-4 0  9992", "line2": "2 64876  98.5768 298.4576 0002405  76.2024 283.9421 14.21436846 18433"}}, "geometry": {"type": "Point", "coordinates": [-76.6002131516857, 60.40780548210194]}}, {"type": "Feature", "properties": {"norad_id": 64877, "name": "IONOSFERA-M 4", "group": "resource", "lat": -61.11053092671851, "lon": 102.85809186563803, "alt_km": 828.8710867659984, "timestamp": "2025-12-02T15:49:06.840969+00:00", "meta": {"OBJECT_NAME": "IONOSFERA-M 4", "OBJECT_ID": "2025-155B", "EPOCH": "2025-12-02T07:55:29.502912", "MEAN_MOTION": 14.21437833, "ECCENTRICITY": 0.00017625, "INCLINATION": 98.5767, "RA_OF_ASC_NODE": 298.4114, "ARG_OF_PERICENTER": 74.3321, "MEAN_ANOMALY": 285.8051, "EPHEMERIS_TYPE": 0, "CLASSIFICATION_TYPE": "U", "NORAD_CAT_ID": 64877, "ELEMENT_SET_NO": 999, "REV_AT_EPOCH": 1843, "BSTAR": 7.0578104e-05, "MEAN_MOTION_DOT": 1.12e-06, "MEAN_MOTION_DDOT": 0}, "tle": {"line1": "1 64877U 25155B   25336.33020258  .00000112  00000+0  70578-4 0  9996", "line2": "2 64877  98.5767 298.4114 0001762  74.3321 285.8051 14.21437833 18432"}}, "geometry": {"type": "Point", "coordinates": [102.85809186563803, -61.11053092671851]}}, {"type": "Feature", "properties": {"norad_id": 64899, "name": "MICROCARB", "group": "resource", "lat": 3.1991257609230885, "lon": 51.71520791780597, "alt_km": 668.6563174010525, "timestamp": "2025-12-02T15:49:06.840979+00:00", "meta": {"OBJECT_NAME": "MICROCARB", "OBJECT_ID": "2025-156A", "EPOCH": "2025-12-02T04:23:02.947200", "MEAN_MOTION": 14.72028029, "ECCENTRICITY": 0.00164511, "INCLINATION": 98.0036, "RA_OF_ASC_NODE": 51.697, "ARG_OF_PERICENTER": 177.5661, "MEAN_ANOMALY": 182.5629, "EPHEMERIS_TYPE": 0, "CLASSIFICATION_TYPE": "U", "NORAD_CAT_ID": 64899, "ELEMENT_SET_NO": 999, "REV_AT_EPOCH": 1898, "BSTAR": 0.00015451217, "MEAN_MOTION_DOT": 9.22e-06, "MEAN_MOTION_DDOT": 0}, "tle": {"line1": "1 64899U 25156A   25336.18267300  .00000922  00000+0  15451-3 0  9992", "line2": "2 64899  98.0036  51.6970 0016451 177.5661 182.5629 14.72028029 18986"}}, "geometry": {"type": "Point", "coordinates": [51.71520791780597, 3.1991257609230885]}}, {"type": "Feature", "properties": {"norad_id": 64900, "name": "CO3D 3", "group": "resource", "lat": 1.6151609010176464, "lon": 51.95465353929963, "alt_km": 613.8754617880195, "timestamp": "2025-12-02T15:49:06.840990+00:00", "meta": {"OBJECT_NAME": "CO3D 3", "OBJECT_ID": "2025-156B", "EPOCH": "2025-11-29T13:08:11.122944", "MEAN_MOTION": 15.11495615, "ECCENTRICITY": 0.01368669, "INCLINATION": 97.6723, "RA_OF_ASC_NODE": 49.0485, "ARG_OF_PERICENTER": 160.1625, "MEAN_ANOMALY": 200.5002, "EPHEMERIS_TYPE": 0, "CLASSIFICATION_TYPE": "U", "NORAD_CAT_ID": 64900, "ELEMENT_SET_NO": 999, "REV_AT_EPOCH": 1920, "BSTAR": 0.00046350794, "MEAN_MOTION_DOT": 9.779e-05, "MEAN_MOTION_DDOT": 0}, "tle": {"line1": "1 64900U 25156B   25333.54735096  .00009779  00000+0  46351-3 0  9996", "line2": "2 64900  97.6723  49.0485 0136866 160.1625 200.5002 15.11495615 19205"}}, "geometry": {"type": "Point", "coordinates": [51.95465353929963, 1.6151609010176464]}}]}